[ {"name": "STARLINK-36496", "line1": "1 67329U 26002AA  26132.92853110  .00015472  00000+0  57025-3 0  9990", "line2": "2 67329  43.0023 322.4540 0002021 265.1716  94.8904 15.27599702 20883"}, {"name": "STARLINK-36483", "line1": "1 67330U 26002AB  26133.53885367  .00007893  00000+0  29593-3 0  9996", "line2": "2 67330  42.9989 319.3005 0001112 265.9559  94.1165 15.27589497 21151"}, {"name": "STARLINK-36494", "line1": "1 67331U 26002AC  26133.52087926  .00011761  00000+0  43631-3 0  9999", "line2": "2 67331  43.0001 319.1572 0001918 257.5415 102.5222 15.27573850 21152"}, {"name": "STARLINK-36492", "line1": "1 67332U 26002AD  26133.21962563  .00012564  00000+0  46566-3 0  9997", "line2": "2 67332  43.0012 321.2054 0001789 286.6683  73.3972 15.27556087 21105"}, {"name": "STARLINK-36427", "line1": "1 67333U 26002AE  26133.52343462  .00014935  00000+0  55096-3 0  9995", "line2": "2 67333  43.0000 319.1687 0001511 267.5993  92.4686 15.27592098 21056"}, {"name": "STARLINK-35343", "line1": "1 67334U 26003A   26133.29335740  .00006881  00000+0  25932-3 0  9998", "line2": "2 67334  43.0026 222.2720 0000664 295.4346  64.6437 15.27583167 18707"}, {"name": "STARLINK-36486", "line1": "1 67335U 26003B   26133.27150938  .00007923  00000+0  29713-3 0  9990", "line2": "2 67335  42.9971 222.1005 0001578 274.5721  85.4950 15.27579678 18703"}, {"name": "STARLINK-36480", "line1": "1 67336U 26003C   26132.97413569  .00010926  00000+0  40582-3 0  9993", "line2": "2 67336  43.0014 224.1743 0001129 293.2208  66.8525 15.27593644 18659"}, {"name": "STARLINK-36410", "line1": "1 67337U 26003D   26133.25366373  .00010582  00000+0  39385-3 0  9993", "line2": "2 67337  43.0007 222.8373 0001315 259.8868 100.1835 15.27551468 18691"}, {"name": "STARLINK-36413", "line1": "1 67338U 26003E   26133.37673108  .00012383  00000+0  45861-3 0  9991", "line2": "2 67338  43.0009 222.0404 0001425 243.6196 116.4510 15.27589321 18710"}, {"name": "STARLINK-36451", "line1": "1 67339U 26003F   26133.29721259  .00008022  00000+0  30075-3 0  9990", "line2": "2 67339  43.0015 222.2971 0001086 268.1940  91.8787 15.27576003 18705"}, {"name": "STARLINK-36339", "line1": "1 67340U 26003G   26133.55104541  .00006288  00000+0  23780-3 0  9997", "line2": "2 67340  43.0030 220.7628 0001179 265.0548  95.0169 15.27583437 18742"}, {"name": "STARLINK-36453", "line1": "1 67341U 26003H   26133.28564554  .00009974  00000+0  37142-3 0  9994", "line2": "2 67341  43.0031 222.2110 0000965 267.2643  92.8098 15.27583318 18709"}, {"name": "STARLINK-36432", "line1": "1 67342U 26003J   26133.26380196  .00002848  00000+0  11297-3 0  9997", "line2": "2 67342  42.9987 222.0412 0001461 271.3568  88.7116 15.27580018 18704"}, {"name": "STARLINK-36458", "line1": "1 67343U 26003K   26132.55996875  .00008287  00000+0  31025-3 0  9990", "line2": "2 67343  42.9991 226.2209 0001492 277.3997  82.6685 15.27589113 18592"}, {"name": "STARLINK-36422", "line1": "1 67344U 26003L   26133.26765677  .00015259  00000+0  56301-3 0  9995", "line2": "2 67344  43.0009 222.0720 0001154 258.5428 101.5294 15.27572642 18701"}, {"name": "STARLINK-35676", "line1": "1 67345U 26003M   26132.94843094  .00006524  00000+0  24631-3 0  9996", "line2": "2 67345  43.0010 223.9759 0001413 278.1227  81.9464 15.27589170 18657"}, {"name": "STARLINK-36472", "line1": "1 67346U 26003N   26133.30877252  .00007470  00000+0  28067-3 0  9999", "line2": "2 67346  43.0018 222.3880 0001700 252.7687 107.2978 15.27582250 18699"}, {"name": "STARLINK-36420", "line1": "1 67347U 26003P   26133.29849418  .00009078  00000+0  33907-3 0  9996", "line2": "2 67347  43.0035 222.3054 0001425 272.8371  87.2318 15.27573901 18709"}, {"name": "STARLINK-36467", "line1": "1 67348U 26003Q   26132.97542176  .00013936  00000+0  51447-3 0  9999", "line2": "2 67348  43.0035 224.1803 0001981 270.6342  89.4283 15.27613843 18652"}, {"name": "STARLINK-36457", "line1": "1 67349U 26003R   26133.54847729  .00008053  00000+0  30186-3 0  9997", "line2": "2 67349  43.0031 220.7412 0001196 269.8772  90.1943 15.27578206 18747"}, {"name": "STARLINK-36475", "line1": "1 67350U 26003S   26133.27279286  .00006818  00000+0  25701-3 0  9990", "line2": "2 67350  42.9970 222.1066 0001096 263.7361  96.3366 15.27586177 18705"}, {"name": "STARLINK-36478", "line1": "1 67351U 26003T   26132.93814918  .00012721  00000+0  47086-3 0  9990", "line2": "2 67351  42.9981 223.8944 0001917 271.6382  88.4250 15.27588287 18656"}, {"name": "STARLINK-36479", "line1": "1 67352U 26003U   26133.25866177  .00013795  00000+0  50974-3 0  9993", "line2": "2 67352  43.0083 222.0054 0004688 281.7345  78.2981 15.27583410 18701"}, {"name": "STARLINK-36474", "line1": "1 67353U 26003V   26133.25494830  .00015728  00000+0  57986-3 0  9995", "line2": "2 67353  43.0001 222.8437 0000534 253.1981 106.8813 15.27579415 18690"}, {"name": "STARLINK-36448", "line1": "1 67354U 26003W   26133.29462014  .00019371  00000+0  71043-3 0  9997", "line2": "2 67354  43.0024 222.2747 0001654 260.9469  99.1195 15.27633837 18703"}, {"name": "STARLINK-36477", "line1": "1 67355U 26003X   26133.31647613  .00015476  00000+0  57057-3 0  9992", "line2": "2 67355  42.9956 222.4396 0001597 267.0055  93.0614 15.27589320 18709"}, {"name": "STARLINK-36429", "line1": "1 67356U 26003Y   26133.24724170  .00016301  00000+0  60046-3 0  9999", "line2": "2 67356  43.0006 222.7866 0001368 251.9916 108.0787 15.27586553 18698"}, {"name": "STARLINK-36456", "line1": "1 67357U 26003Z   26133.29078582  .00010675  00000+0  39682-3 0  9994", "line2": "2 67357  43.0020 222.2459 0000755 281.4018  78.6748 15.27583582 18708"}, {"name": "STARLINK-36466", "line1": "1 67358U 26003AA  26133.26894081  .00007369  00000+0  27701-3 0  9997", "line2": "2 67358  42.9986 222.0760 0001300 279.9667  80.1037 15.27583706 18707"}, {"name": "STARLINK-36499", "line1": "1 67359U 26003AB  26133.25623841  .00011696  00000+0  43380-3 0  9990", "line2": "2 67359  43.0018 222.8507 0002629 271.1933  88.8618 15.27584525 18696"}, {"name": "STARLINK-36469", "line1": "1 67360U 26003AC  26133.25238174  .00011705  00000+0  43414-3 0  9992", "line2": "2 67360  43.0002 222.8246 0001679 282.1024  77.9639 15.27584419 18692"}, {"name": "STARLINK-35306", "line1": "1 67361U 26003AD  26133.28435957  .00005721  00000+0  21722-3 0  9993", "line2": "2 67361  43.0008 222.1966 0000980 267.6626  92.4113 15.27583808 18703"}, {"name": "STARLINK-36428", "line1": "1 67362U 26003AE  26133.28177865  .00011354  00000+0  42115-3 0  9993", "line2": "2 67362  43.0020 222.1739 0001374 280.2609  79.8088 15.27605697 18707"}, {"name": "STARLINK-36484", "line1": "1 67404U 26005A   26133.31630007  .00011607  00000+0  43057-3 0  9995", "line2": "2 67404  43.0018 232.7235 0001295 276.0047  84.0657 15.27586094 18585"}, {"name": "STARLINK-36452", "line1": "1 67405U 26005B   26133.31115889  .00006151  00000+0  23277-3 0  9992", "line2": "2 67405  42.9986 232.6815 0000470 296.5843  63.4961 15.27590824 18581"}, {"name": "STARLINK-36409", "line1": "1 67406U 26005C   26133.33334491  .00008799  00000+0  32881-3 0  9998", "line2": "2 67406  43.0013 233.0517 0001646 269.1958   7.8323 15.27588576  5871"}, {"name": "STARLINK-36510", "line1": "1 67407U 26005D   26133.27660954  .00008631  00000+0  32273-3 0  9998", "line2": "2 67407  43.0019 233.2819 0002032 276.5058  83.5563 15.27586649 18575"}, {"name": "STARLINK-36509", "line1": "1 67408U 26005E   26133.32658742  .00011466  00000+0  42561-3 0  9998", "line2": "2 67408  43.0034 232.7979 0001952 286.0688  73.9949 15.27575551 18570"}, {"name": "STARLINK-36507", "line1": "1 67409U 26005F   26133.35613530  .00008738  00000+0  32667-3 0  9992", "line2": "2 67409  42.9972 233.0155 0001543 271.3506  88.7168 15.27581207 18585"}, {"name": "STARLINK-36508", "line1": "1 67410U 26005G   26133.30102623  .00005087  00000+0  19419-3 0  9999", "line2": "2 67410  43.0015 233.4738 0001080 259.4784 100.5946 15.27589790 18570"}, {"name": "STARLINK-36503", "line1": "1 67411U 26005H   26133.00350873  .00002483  00000+0  99752-4 0  9995", "line2": "2 67411  43.0006 234.6680 0000796 300.0973  59.9799 15.27572023 18536"}, {"name": "STARLINK-36446", "line1": "1 67412U 26005J   26133.33685453  .00004097  00000+0  15839-3 0  9993", "line2": "2 67412  43.0017 232.8772 0001822 275.5711  84.4933 15.27570671 18583"}, {"name": "STARLINK-36442", "line1": "1 67413U 26005K   26133.31887028  .00011560  00000+0  42884-3 0  9997", "line2": "2 67413  43.0022 232.7369 0001315 273.6904  86.3797 15.27587104 18589"}, {"name": "STARLINK-36506", "line1": "1 67414U 26005L   26133.32400847  .00012110  00000+0  44880-3 0  9999", "line2": "2 67414  42.9950 232.7644 0000670 244.4332 115.6450 15.27585142 18580"}, {"name": "STARLINK-36468", "line1": "1 67415U 26005M   26132.97152049  .00014097  00000+0  52067-3 0  9990", "line2": "2 67415  42.9960 235.2876 0001888 276.0198  84.0438 15.27587454 18527"}, {"name": "STARLINK-36487", "line1": "1 67416U 26005N   26133.29331691  .00009969  00000+0  37125-3 0  9999", "line2": "2 67416  42.9987 233.4099 0001331 268.5771  91.4928 15.27583603 18573"}, {"name": "STARLINK-36374", "line1": "1 67417U 26005P   26133.28046799  .00016248  00000+0  59867-3 0  9996", "line2": "2 67417  43.0011 233.3084 0001841 264.4200  95.6441 15.27578452 18577"}, {"name": "STARLINK-36455", "line1": "1 67418U 26005Q   26133.27275410  .00009523  00000+0  35508-3 0  9994", "line2": "2 67418  43.0016 233.2465 0001617 259.0281 101.0388 15.27584715 18576"}, {"name": "STARLINK-36424", "line1": "1 67419U 26005R   26133.32272367  .00009298  00000+0  34699-3 0  9998", "line2": "2 67419  42.9967 232.7625 0000880 261.8617  98.2135 15.27579810 18585"}, {"name": "STARLINK-35564", "line1": "1 67420U 26005S   26133.27789405  .00011419  00000+0  42370-3 0  9993", "line2": "2 67420  43.0053 233.2819 0003415 251.8257 108.2223 15.27588083 18573"}, {"name": "STARLINK-36431", "line1": "1 67421U 26005T   26133.29717187  .00006875  00000+0  25915-3 0  9990", "line2": "2 67421  42.9965 233.4371 0001233 277.0149  83.0562 15.27577031 18572"}]